CCSDS_OMM_VERS = 2.0
CREATION_DATE  = 
ORIGINATOR     = 

OBJECT_NAME    = SL-14 R/B
OBJECT_ID      = 1986-046B
CENTER_NAME    = EARTH
REF_FRAME      = TEME
TIME_SYSTEM    = UTC
MEAN_ELEMENT_THEORY = SGP/SGP4

EPOCH          = 2026-03-27T10:54:08.331840
MEAN_MOTION    = 14.85606957
ECCENTRICITY   = .00234314
INCLINATION    = 82.4800
RA_OF_ASC_NODE = 63.3918
ARG_OF_PERICENTER = 165.5364
MEAN_ANOMALY   = 194.6528

EPHEMERIS_TYPE = 0
CLASSIFICATION_TYPE = U
NORAD_CAT_ID   = 16792
ELEMENT_SET_NO = 999
REV_AT_EPOCH   = 12904
BSTAR          = .54033E-4
MEAN_MOTION_DOT = .494E-5
MEAN_MOTION_DDOT = 0

CCSDS_OMM_VERS = 2.0
CREATION_DATE  = 
ORIGINATOR     = 

OBJECT_NAME    = SL-14 R/B
OBJECT_ID      = 1986-055B
CENTER_NAME    = EARTH
REF_FRAME      = TEME
TIME_SYSTEM    = UTC
MEAN_ELEMENT_THEORY = SGP/SGP4

EPOCH          = 2026-03-27T14:16:13.702656
MEAN_MOTION    = 14.85657831
ECCENTRICITY   = .00173101
INCLINATION    = 82.5171
RA_OF_ASC_NODE = 109.8408
ARG_OF_PERICENTER = 273.2450
MEAN_ANOMALY   = 205.3335

EPHEMERIS_TYPE = 0
CLASSIFICATION_TYPE = U
NORAD_CAT_ID   = 16882
ELEMENT_SET_NO = 999
REV_AT_EPOCH   = 12202
BSTAR          = .4353756E-4
MEAN_MOTION_DOT = .402E-5
MEAN_MOTION_DDOT = 0

CCSDS_OMM_VERS = 2.0
CREATION_DATE  = 
ORIGINATOR     = 

OBJECT_NAME    = AJISAI (EGS)
OBJECT_ID      = 1986-061A
CENTER_NAME    = EARTH
REF_FRAME      = TEME
TIME_SYSTEM    = UTC
MEAN_ELEMENT_THEORY = SGP/SGP4

EPOCH          = 2026-03-27T13:35:33.008064
MEAN_MOTION    = 12.44515625
ECCENTRICITY   = .00113317
INCLINATION    = 50.0110
RA_OF_ASC_NODE = 38.3753
ARG_OF_PERICENTER = 333.1202
MEAN_ANOMALY   = 198.0714

EPHEMERIS_TYPE = 0
CLASSIFICATION_TYPE = U
NORAD_CAT_ID   = 16908
ELEMENT_SET_NO = 999
REV_AT_EPOCH   = 47022
BSTAR          = .5015986E-5
MEAN_MOTION_DOT = -.97E-6
MEAN_MOTION_DDOT = 0

CCSDS_OMM_VERS = 2.0
CREATION_DATE  = 
ORIGINATOR     = 

OBJECT_NAME    = SL-14 R/B
OBJECT_ID      = 1987-024B
CENTER_NAME    = EARTH
REF_FRAME      = TEME
TIME_SYSTEM    = UTC
MEAN_ELEMENT_THEORY = SGP/SGP4

EPOCH          = 2026-03-27T09:55:57.153216
MEAN_MOTION    = 14.86148457
ECCENTRICITY   = .00176829
INCLINATION    = 82.5251
RA_OF_ASC_NODE = 76.0996
ARG_OF_PERICENTER = 197.3049
MEAN_ANOMALY   = 162.7568

EPHEMERIS_TYPE = 0
CLASSIFICATION_TYPE = U
NORAD_CAT_ID   = 17567
ELEMENT_SET_NO = 999
REV_AT_EPOCH   = 9076
BSTAR          = .52737172E-4
MEAN_MOTION_DOT = .488E-5
MEAN_MOTION_DDOT = 0

CCSDS_OMM_VERS = 2.0
CREATION_DATE  = 
ORIGINATOR     = 

OBJECT_NAME    = COSMOS 1833
OBJECT_ID      = 1987-027A
CENTER_NAME    = EARTH
REF_FRAME      = TEME
TIME_SYSTEM    = UTC
MEAN_ELEMENT_THEORY = SGP/SGP4

EPOCH          = 2026-03-27T13:23:07.439136
MEAN_MOTION    = 14.13048084
ECCENTRICITY   = .00233368
INCLINATION    = 70.9173
RA_OF_ASC_NODE = 288.4628
ARG_OF_PERICENTER = 188.3016
MEAN_ANOMALY   = 171.7723

EPHEMERIS_TYPE = 0
CLASSIFICATION_TYPE = U
NORAD_CAT_ID   = 17589
ELEMENT_SET_NO = 999
REV_AT_EPOCH   = 1284
BSTAR          = -.12394683E-3
MEAN_MOTION_DOT = -.28E-5
MEAN_MOTION_DDOT = 0

CCSDS_OMM_VERS = 2.0
CREATION_DATE  = 
ORIGINATOR     = 

OBJECT_NAME    = SL-16 R/B
OBJECT_ID      = 1987-027B
CENTER_NAME    = EARTH
REF_FRAME      = TEME
TIME_SYSTEM    = UTC
MEAN_ELEMENT_THEORY = SGP/SGP4

EPOCH          = 2026-03-27T14:53:51.308736
MEAN_MOTION    = 14.17165539
ECCENTRICITY   = .00028455
INCLINATION    = 71.0013
RA_OF_ASC_NODE = 238.7059
ARG_OF_PERICENTER = 99.0882
MEAN_ANOMALY   = 261.0564

EPHEMERIS_TYPE = 0
CLASSIFICATION_TYPE = U
NORAD_CAT_ID   = 17590
ELEMENT_SET_NO = 999
REV_AT_EPOCH   = 1788
BSTAR          = -.39285301E-4
MEAN_MOTION_DOT = -.127E-5
MEAN_MOTION_DDOT = 0

CCSDS_OMM_VERS = 2.0
CREATION_DATE  = 
ORIGINATOR     = 

OBJECT_NAME    = SL-14 R/B
OBJECT_ID      = 1987-038B
CENTER_NAME    = EARTH
REF_FRAME      = TEME
TIME_SYSTEM    = UTC
MEAN_ELEMENT_THEORY = SGP/SGP4

EPOCH          = 2026-03-27T13:15:49.688352
MEAN_MOTION    = 14.85384725
ECCENTRICITY   = .00207318
INCLINATION    = 82.4977
RA_OF_ASC_NODE = 279.9754
ARG_OF_PERICENTER = 104.5622
MEAN_ANOMALY   = 255.7895

EPHEMERIS_TYPE = 0
CLASSIFICATION_TYPE = U
NORAD_CAT_ID   = 17912
ELEMENT_SET_NO = 999
REV_AT_EPOCH   = 8188
BSTAR          = .50119366E-4
MEAN_MOTION_DOT = .457E-5
MEAN_MOTION_DDOT = 0

CCSDS_OMM_VERS = 2.0
CREATION_DATE  = 
ORIGINATOR     = 

OBJECT_NAME    = COSMOS 1844
OBJECT_ID      = 1987-041A
CENTER_NAME    = EARTH
REF_FRAME      = TEME
TIME_SYSTEM    = UTC
MEAN_ELEMENT_THEORY = SGP/SGP4

EPOCH          = 2026-03-27T12:04:34.557600
MEAN_MOTION    = 14.14555459
ECCENTRICITY   = .00309594
INCLINATION    = 70.9013
RA_OF_ASC_NODE = 356.6037
ARG_OF_PERICENTER = 351.8859
MEAN_ANOMALY   = 8.1758

EPHEMERIS_TYPE = 0
CLASSIFICATION_TYPE = U
NORAD_CAT_ID   = 17973
ELEMENT_SET_NO = 999
REV_AT_EPOCH   = 610
BSTAR          = .20244795E-3
MEAN_MOTION_DOT = .342E-5
MEAN_MOTION_DDOT = 0

CCSDS_OMM_VERS = 2.0
CREATION_DATE  = 
ORIGINATOR     = 

OBJECT_NAME    = SL-14 R/B
OBJECT_ID      = 1987-055B
CENTER_NAME    = EARTH
REF_FRAME      = TEME
TIME_SYSTEM    = UTC
MEAN_ELEMENT_THEORY = SGP/SGP4

EPOCH          = 2026-03-27T09:23:59.777376
MEAN_MOTION    = 14.85646699
ECCENTRICITY   = .00196002
INCLINATION    = 82.5010
RA_OF_ASC_NODE = 332.3506
ARG_OF_PERICENTER = 318.5403
MEAN_ANOMALY   = 41.4325

EPHEMERIS_TYPE = 0
CLASSIFICATION_TYPE = U
NORAD_CAT_ID   = 18153
ELEMENT_SET_NO = 999
REV_AT_EPOCH   = 7256
BSTAR          = .43775197E-4
MEAN_MOTION_DOT = .404E-5
MEAN_MOTION_DDOT = 0

CCSDS_OMM_VERS = 2.0
CREATION_DATE  = 
ORIGINATOR     = 

OBJECT_NAME    = COSMOS 1867
OBJECT_ID      = 1987-060A
CENTER_NAME    = EARTH
REF_FRAME      = TEME
TIME_SYSTEM    = UTC
MEAN_ELEMENT_THEORY = SGP/SGP4

EPOCH          = 2026-03-27T14:31:34.189248
MEAN_MOTION    = 14.31505736
ECCENTRICITY   = .00147852
INCLINATION    = 65.0091
RA_OF_ASC_NODE = 256.5301
ARG_OF_PERICENTER = 279.6653
MEAN_ANOMALY   = 80.2761

EPHEMERIS_TYPE = 0
CLASSIFICATION_TYPE = U
NORAD_CAT_ID   = 18187
ELEMENT_SET_NO = 999
REV_AT_EPOCH   = 2250
BSTAR          = .35684442E-4
MEAN_MOTION_DOT = -.5E-7
MEAN_MOTION_DDOT = 0

CCSDS_OMM_VERS = 2.0
CREATION_DATE  = 
ORIGINATOR     = 

OBJECT_NAME    = SL-14 R/B
OBJECT_ID      = 1988-001B
CENTER_NAME    = EARTH
REF_FRAME      = TEME
TIME_SYSTEM    = UTC
MEAN_ELEMENT_THEORY = SGP/SGP4

EPOCH          = 2026-03-27T12:33:04.085280
MEAN_MOTION    = 14.85546887
ECCENTRICITY   = .00182223
INCLINATION    = 82.5162
RA_OF_ASC_NODE = 178.5927
ARG_OF_PERICENTER = 174.6901
MEAN_ANOMALY   = 185.4512

EPHEMERIS_TYPE = 0
CLASSIFICATION_TYPE = U
NORAD_CAT_ID   = 18749
ELEMENT_SET_NO = 999
REV_AT_EPOCH   = 4467
BSTAR          = .50777858E-4
MEAN_MOTION_DOT = .464E-5
MEAN_MOTION_DDOT = 0

CCSDS_OMM_VERS = 2.0
CREATION_DATE  = 
ORIGINATOR     = 

OBJECT_NAME    = COSMOS 1933
OBJECT_ID      = 1988-020A
CENTER_NAME    = EARTH
REF_FRAME      = TEME
TIME_SYSTEM    = UTC
MEAN_ELEMENT_THEORY = SGP/SGP4

EPOCH          = 2026-03-27T10:55:46.598880
MEAN_MOTION    = 15.18146927
ECCENTRICITY   = .00051284
INCLINATION    = 82.5120
RA_OF_ASC_NODE = 233.3302
ARG_OF_PERICENTER = 128.9542
MEAN_ANOMALY   = 231.2150

EPHEMERIS_TYPE = 0
CLASSIFICATION_TYPE = U
NORAD_CAT_ID   = 18958
ELEMENT_SET_NO = 999
REV_AT_EPOCH   = 5292
BSTAR          = .19973236E-3
MEAN_MOTION_DOT = .4108E-4
MEAN_MOTION_DDOT = 0

