SL-14 R/B               
1 16792U 86046B   26086.45426310  .00000494  00000+0  54033-4 0  9991
2 16792  82.4800  63.3918 0023431 165.5364 194.6528 14.85606957129044
SL-14 R/B               
1 16882U 86055B   26086.59460304  .00000402  00000+0  43538-4 0  9994
2 16882  82.5171 109.8408 0017310 273.2450 205.3335 14.85657831122022
AJISAI (EGS)            
1 16908U 86061A   26086.56635426 -.00000097  00000+0  50160-5 0  9997
2 16908  50.0110  38.3753 0011331 333.1202 198.0714 12.44515625470225
SL-14 R/B               
1 17567U 87024B   26086.41385594  .00000488  00000+0  52737-4 0  9995
2 17567  82.5251  76.0996 0017682 197.3049 162.7568 14.86148457 90760
COSMOS 1833             
1 17589U 87027A   26086.55772499 -.00000280  00000+0 -12395-3 0  9998
2 17589  70.9173 288.4628 0023336 188.3016 171.7723 14.13048084 12847
SL-16 R/B               
1 17590U 87027B   26086.62073274 -.00000127  00000+0 -39285-4 0  9991
2 17590  71.0013 238.7059 0002845  99.0882 261.0564 14.17165539 17885
SL-14 R/B               
1 17912U 87038B   26086.55265843  .00000457  00000+0  50119-4 0  9991
2 17912  82.4977 279.9754 0020731 104.5622 255.7895 14.85384725 81888
COSMOS 1844             
1 17973U 87041A   26086.50317775  .00000342  00000+0  20245-3 0  9998
2 17973  70.9013 356.6037 0030959 351.8859   8.1758 14.14555459  6103
SL-14 R/B               
1 18153U 87055B   26086.39166409  .00000404  00000+0  43775-4 0  9990
2 18153  82.5010 332.3506 0019600 318.5403  41.4325 14.85646699 72565
COSMOS 1867             
1 18187U 87060A   26086.60525682 -.00000005  00000+0  35684-4 0  9997
2 18187  65.0091 256.5301 0014785 279.6653  80.2761 14.31505736 22501
SL-14 R/B               
1 18749U 88001B   26086.52296395  .00000464  00000+0  50778-4 0  9993
2 18749  82.5162 178.5927 0018222 174.6901 185.4512 14.85546887 44670
COSMOS 1933             
1 18958U 88020A   26086.45540045  .00004108  00000+0  19973-3 0  9992
2 18958  82.5120 233.3302 0005128 128.9542 231.2150 15.18146927 52920
